{"type": "FeatureCollection", "features": [ {"type": "Feature", "properties": {"norad_id": 30252, "name": "FENGYUN 1C DEB", "group": "fengyun-1c-debris", "lat": -60.91773863266099, "lon": 20.199589638616413, "alt_km": 845.7131911029292, "timestamp": "2025-12-15T04:01:20.726502+00:00", "meta": {"OBJECT_NAME": "FENGYUN 1C DEB", "OBJECT_ID": "1999-025XM", "EPOCH": "2025-12-14T07:56:20.769216", "MEAN_MOTION": 14.09713379, "ECCENTRICITY": 0.00659905, "INCLINATION": 98.7436, "RA_OF_ASC_NODE": 3.3234, "ARG_OF_PERICENTER": 237.0203, "MEAN_ANOMALY": 135.8168, "EPHEMERIS_TYPE": 0, "CLASSIFICATION_TYPE": "U", "NORAD_CAT_ID": 30252, "ELEMENT_SET_NO": 999, "REV_AT_EPOCH": 96988, "BSTAR": 0.00061570587, "MEAN_MOTION_DOT": 1.059e-05, "MEAN_MOTION_DDOT": 0}, "tle": {"line1": "1 30252U 99025XM  25348.33079594  .00001059  00000+0  61571-3 0  9996", "line2": "2 30252  98.7436   3.3234 0065990 237.0203 135.8168 14.09713379969888"}}, "geometry": {"type": "Point", "coordinates": [20.199589638616413, -60.91773863266099]}}, {"type": "Feature", "properties": {"norad_id": 30253, "name": "FENGYUN 1C DEB", "group": "fengyun-1c-debris", "lat": 45.2849616317523, "lon": -94.02551600172718, "alt_km": 1006.7510474477576, "timestamp": "2025-12-15T04:01:20.726513+00:00", "meta": {"OBJECT_NAME": "FENGYUN 1C DEB", "OBJECT_ID": "1999-025XN", "EPOCH": "2025-12-14T04:57:12.800160", "MEAN_MOTION": 13.73187699, "ECCENTRICITY": 0.02213498, "INCLINATION": 98.7518, "RA_OF_ASC_NODE": 76.1442, "ARG_OF_PERICENTER": 37.2959, "MEAN_ANOMALY": 25.0176, "EPHEMERIS_TYPE": 0, "CLASSIFICATION_TYPE": "U", "NORAD_CAT_ID": 30253, "ELEMENT_SET_NO": 999, "REV_AT_EPOCH": 94034, "BSTAR": 0.0020471902, "MEAN_MOTION_DOT": 2.223e-05, "MEAN_MOTION_DDOT": 0}, "tle": {"line1": "1 30253U 99025XN  25348.20639815  .00002223  00000+0  20472-2 0  9999", "line2": "2 30253  98.7518  76.1442 0221349  37.2959  25.0176 13.73187699940348"}}, "geometry": {"type": "Point", "coordinates": [-94.02551600172718, 45.2849616317523]}}, {"type": "Feature", "properties": {"norad_id": 30257, "name": "FENGYUN 1C DEB", "group": "fengyun-1c-debris", "lat": -62.03334352369933, "lon": 4.525209650840236, "alt_km": 906.818174368007, "timestamp": "2025-12-15T04:01:20.726523+00:00", "meta": {"OBJECT_NAME": "FENGYUN 1C DEB", "OBJECT_ID": "1999-025XS", "EPOCH": "2025-12-14T06:15:34.041024", "MEAN_MOTION": 14.09724792, "ECCENTRICITY": 0.00596956, "INCLINATION": 98.7497, "RA_OF_ASC_NODE": 346.7828, "ARG_OF_PERICENTER": 95.0523, "MEAN_ANOMALY": 282.5485, "EPHEMERIS_TYPE": 0, "CLASSIFICATION_TYPE": "U", "NORAD_CAT_ID": 30257, "ELEMENT_SET_NO": 999, "REV_AT_EPOCH": 97239, "BSTAR": 0.00013904526, "MEAN_MOTION_DOT": 2.06e-06, "MEAN_MOTION_DDOT": 0}, "tle": {"line1": "1 30257U 99025XS  25348.26081066  .00000206  00000+0  13905-3 0  9991", "line2": "2 30257  98.7497 346.7828 0059695  95.0523 282.5485 14.09724792972398"}}, "geometry": {"type": "Point", "coordinates": [4.525209650840236, -62.03334352369933]}}, {"type": "Feature", "properties": {"norad_id": 30259, "name": "FENGYUN 1C DEB", "group": "fengyun-1c-debris", "lat": -9.370401610728226, "lon": -157.55119276113487, "alt_km": 719.7670773610298, "timestamp": "2025-12-15T04:01:20.726533+00:00", "meta": {"OBJECT_NAME": "FENGYUN 1C DEB", "OBJECT_ID": "1999-025XU", "EPOCH": "2025-12-14T03:49:34.293216", "MEAN_MOTION": 14.51514969, "ECCENTRICITY": 0.02420093, "INCLINATION": 98.762, "RA_OF_ASC_NODE": 199.9388, "ARG_OF_PERICENTER": 263.9759, "MEAN_ANOMALY": 218.7545, "EPHEMERIS_TYPE": 0, "CLASSIFICATION_TYPE": "U", "NORAD_CAT_ID": 30259, "ELEMENT_SET_NO": 999, "REV_AT_EPOCH": 99495, "BSTAR": 0.00052920809, "MEAN_MOTION_DOT": 3.036e-05, "MEAN_MOTION_DDOT": 0}, "tle": {"line1": "1 30259U 99025XU  25348.15942469  .00003036  00000+0  52921-3 0  9999", "line2": "2 30259  98.7620 199.9388 0242009 263.9759 218.7545 14.51514969994951"}}, "geometry": {"type": "Point", "coordinates": [-157.55119276113487, -9.370401610728226]}}, {"type": "Feature", "properties": {"norad_id": 30263, "name": "FENGYUN 1C DEB", "group": "fengyun-1c-debris", "lat": 36.520276652575674, "lon": 97.60829907896016, "alt_km": 809.1922556644558, "timestamp": "2025-12-15T04:01:20.726543+00:00", "meta": {"OBJECT_NAME": "FENGYUN 1C DEB", "OBJECT_ID": "1999-025XY", "EPOCH": "2025-12-14T07:33:02.838816", "MEAN_MOTION": 14.01480098, "ECCENTRICITY": 0.01448664, "INCLINATION": 98.9355, "RA_OF_ASC_NODE": 103.4633, "ARG_OF_PERICENTER": 355.7896, "MEAN_ANOMALY": 58.9787, "EPHEMERIS_TYPE": 0, "CLASSIFICATION_TYPE": "U", "NORAD_CAT_ID": 30263, "ELEMENT_SET_NO": 999, "REV_AT_EPOCH": 96047, "BSTAR": 0.0011470838, "MEAN_MOTION_DOT": 1.855e-05, "MEAN_MOTION_DDOT": 0}, "tle": {"line1": "1 30263U 99025XY  25348.31461619  .00001855  00000+0  11471-2 0  9996", "line2": "2 30263  98.9355 103.4633 0144866 355.7896  58.9787 14.01480098960472"}}, "geometry": {"type": "Point", "coordinates": [97.60829907896016, 36.520276652575674]}}, {"type": "Feature", "properties": {"norad_id": 30264, "name": "FENGYUN 1C DEB", "group": "fengyun-1c-debris", "lat": -77.60752868689386, "lon": 90.23822395125997, "alt_km": 797.064068407467, "timestamp": "2025-12-15T04:01:20.726553+00:00", "meta": {"OBJECT_NAME": "FENGYUN 1C DEB", "OBJECT_ID": "1999-025XZ", "EPOCH": "2025-12-14T03:04:34.554144", "MEAN_MOTION": 14.07644721, "ECCENTRICITY": 0.01072377, "INCLINATION": 98.9702, "RA_OF_ASC_NODE": 43.2463, "ARG_OF_PERICENTER": 283.4644, "MEAN_ANOMALY": 130.7791, "EPHEMERIS_TYPE": 0, "CLASSIFICATION_TYPE": "U", "NORAD_CAT_ID": 30264, "ELEMENT_SET_NO": 999, "REV_AT_EPOCH": 96577, "BSTAR": 0.0013433268, "MEAN_MOTION_DOT": 2.347e-05, "MEAN_MOTION_DDOT": 0}, "tle": {"line1": "1 30264U 99025XZ  25348.12817771  .00002347  00000+0  13433-2 0  9997", "line2": "2 30264  98.9702  43.2463 0107237 283.4644 130.7791 14.07644721965773"}}, "geometry": {"type": "Point", "coordinates": [90.23822395125997, -77.60752868689386]}}, {"type": "Feature", "properties": {"norad_id": 30265, "name": "FENGYUN 1C DEB", "group": "fengyun-1c-debris", "lat": 23.69271122157526, "lon": 94.55743402773996, "alt_km": 677.8396392376853, "timestamp": "2025-12-15T04:01:20.726563+00:00", "meta": {"OBJECT_NAME": "FENGYUN 1C DEB", "OBJECT_ID": "1999-025YA", "EPOCH": "2025-12-14T06:45:35.696160", "MEAN_MOTION": 14.58666748, "ECCENTRICITY": 0.0028536, "INCLINATION": 98.6621, "RA_OF_ASC_NODE": 97.47, "ARG_OF_PERICENTER": 7.2928, "MEAN_ANOMALY": 47.1384, "EPHEMERIS_TYPE": 0, "CLASSIFICATION_TYPE": "U", "NORAD_CAT_ID": 30265, "ELEMENT_SET_NO": 999, "REV_AT_EPOCH": 98424, "BSTAR": 0.0024171705, "MEAN_MOTION_DOT": 0.00011295, "MEAN_MOTION_DDOT": 0}, "tle": {"line1": "1 30265U 99025YA  25348.28166315  .00011295  00000+0  24172-2 0  9990", "line2": "2 30265  98.6621  97.4700 0028536   7.2928  47.1384 14.58666748984248"}}, "geometry": {"type": "Point", "coordinates": [94.55743402773996, 23.69271122157526]}}, {"type": "Feature", "properties": {"norad_id": 30266, "name": "FENGYUN 1C DEB", "group": "fengyun-1c-debris", "lat": 16.29834910436984, "lon": 50.74273580573952, "alt_km": 798.386338614021, "timestamp": "2025-12-15T04:01:20.726573+00:00", "meta": {"OBJECT_NAME": "FENGYUN 1C DEB", "OBJECT_ID": "1999-025YB", "EPOCH": "2025-12-14T04:29:08.566944", "MEAN_MOTION": 14.15092119, "ECCENTRICITY": 0.00825512, "INCLINATION": 99.0431, "RA_OF_ASC_NODE": 52.4179, "ARG_OF_PERICENTER": 61.9265, "MEAN_ANOMALY": 2.1011, "EPHEMERIS_TYPE": 0, "CLASSIFICATION_TYPE": "U", "NORAD_CAT_ID": 30266, "ELEMENT_SET_NO": 999, "REV_AT_EPOCH": 96810, "BSTAR": 0.0015136277, "MEAN_MOTION_DOT": 2.989e-05, "MEAN_MOTION_DDOT": 0}, "tle": {"line1": "1 30266U 99025YB  25348.18690471  .00002989  00000+0  15136-2 0  9995", "line2": "2 30266  99.0431  52.4179 0082551  61.9265   2.1011 14.15092119968105"}}, "geometry": {"type": "Point", "coordinates": [50.74273580573952, 16.29834910436984]}}, {"type": "Feature", "properties": {"norad_id": 30267, "name": "FENGYUN 1C DEB", "group": "fengyun-1c-debris", "lat": 6.037767234965312, "lon": 59.40043744221622, "alt_km": 842.4645042950215, "timestamp": "2025-12-15T04:01:20.726584+00:00", "meta": {"OBJECT_NAME": "FENGYUN 1C DEB", "OBJECT_ID": "1999-025YC", "EPOCH": "2025-12-14T04:22:42.495456", "MEAN_MOTION": 14.2361957, "ECCENTRICITY": 0.00591946, "INCLINATION": 98.8503, "RA_OF_ASC_NODE": 59.3538, "ARG_OF_PERICENTER": 238.9939, "MEAN_ANOMALY": 120.5417, "EPHEMERIS_TYPE": 0, "CLASSIFICATION_TYPE": "U", "NORAD_CAT_ID": 30267, "ELEMENT_SET_NO": 999, "REV_AT_EPOCH": 97315, "BSTAR": 0.0017461413, "MEAN_MOTION_DOT": 4.008e-05, "MEAN_MOTION_DDOT": 0}, "tle": {"line1": "1 30267U 99025YC  25348.18243629  .00004008  00000+0  17461-2 0  9992", "line2": "2 30267  98.8503  59.3538 0059194 238.9939 120.5417 14.23619570973150"}}, "geometry": {"type": "Point", "coordinates": [59.40043744221622, 6.037767234965312]}}, {"type": "Feature", "properties": {"norad_id": 30270, "name": "FENGYUN 1C DEB", "group": "fengyun-1c-debris", "lat": -65.63424602614353, "lon": 163.04931521295768, "alt_km": 862.6550772266228, "timestamp": "2025-12-15T04:01:20.726594+00:00", "meta": {"OBJECT_NAME": "FENGYUN 1C DEB", "OBJECT_ID": "1999-025YF", "EPOCH": "2025-12-14T07:05:20.711040", "MEAN_MOTION": 14.11271881, "ECCENTRICITY": 0.00075069, "INCLINATION": 98.7023, "RA_OF_ASC_NODE": 1.9697, "ARG_OF_PERICENTER": 154.9318, "MEAN_ANOMALY": 343.1684, "EPHEMERIS_TYPE": 0, "CLASSIFICATION_TYPE": "U", "NORAD_CAT_ID": 30270, "ELEMENT_SET_NO": 999, "REV_AT_EPOCH": 97383, "BSTAR": 0.00017791018, "MEAN_MOTION_DOT": 2.79e-06, "MEAN_MOTION_DDOT": 0}, "tle": {"line1": "1 30270U 99025YF  25348.29537860  .00000279  00000+0  17791-3 0  9994", "line2": "2 30270  98.7023   1.9697 0007506 154.9318 343.1684 14.11271881973837"}}, "geometry": {"type": "Point", "coordinates": [163.04931521295768, -65.63424602614353]}}]}